[{"ID":1,"NAME_VI":"Hà Nội","SMS":"HN","NAME_EN":"Ha Noi","ORDER":1,"LAT":"21.028363","LNG":"105.854175","CHILDS":[{"NAME":"Hà Nội","LAT":"21.028363","LNG":"105.854175"},{"NAME":"Hai Bà Trưng","LAT":"21.010058","LNG":"105.849860"},{"NAME":"Hoàng Mai","LAT":"20.984506","LNG":"105.86232"},{"NAME":"Ba Đình","LAT":"21.033881","LNG":"105.814419"},{"NAME":"Thanh Xuân","LAT":"20.994683","LNG":"105.799858"},{"NAME":"Tây Hồ","LAT":"21.069696","LNG":"105.811839"},{"NAME":"Hoàn Kiếm","LAT":"21.029267","LNG":"105.850542"},{"NAME":"Cầu Giấy","LAT":"21.030666","LNG":"105.801237"},{"NAME":"Đống Đa","LAT":"21.020012","LNG":"105.830780"},{"NAME":"Long Biên","LAT":"21.062530","LNG":"105.901978"},{"NAME":"Hà Đông","LAT":"20.971318","LNG":"105.779597"},{"NAME":"Sơn Tây","LAT":"21.140909","LNG":"105.505462"},{"NAME":"Ba Vì","LAT":"21.198321","LNG":"105.422310"},{"NAME":"Chương Mỹ","LAT":"20.923919","LNG":"105.701195"},{"NAME":"Đan Phượng","LAT":"21.082452","LNG":"105.672202"},{"NAME":"Đông Anh","LAT":"21.155291","LNG":"105.846876"},{"NAME":"Thanh Oai","LAT":"20.852668","LNG":"105.769411"},{"NAME":"Hoài Đức","LAT":"21.066019","LNG":"105.708163"},{"NAME":"Gia Lâm","LAT":"21.019486","LNG":"105.937103"},{"NAME":"Mê Linh","LAT":"21.181821","LNG":"105.719332"},{"NAME":"Từ Liêm","LAT":"21.039195","LNG":"105.76692"},{"NAME":"Phú Xuyên","LAT":"20.745741","LNG":"105.913520"},{"NAME":"Thanh Trì","LAT":"20.946673","LNG":"105.844721"},{"NAME":"Thường Tín","LAT":"20.868454","LNG":"105.861557"},{"NAME":"Mỹ Đức","LAT":"20.686612","LNG":"105.744746"},{"NAME":"Phúc Thọ","LAT":"21.111335","LNG":"105.582036"},{"NAME":"Quốc Oai","LAT":"20.992673","LNG":"105.642769"},{"NAME":"Sóc Sơn","LAT":"21.257567","LNG":"105.848618"},{"NAME":"Thạch Thất","LAT":"21.054859","LNG":"105.578215"},{"NAME":"Ứng Hòa","LAT":"20.734233","LNG":"105.767394"}]},
{"ID":79,"NAME_VI":"Hồ Chí Minh","SMS":"HCM","NAME_EN":"Ho Chi Minh","ORDER":2,"CHILDS":[{"NAME":"Hồ Chí Minh","LAT":"10.777075","LNG":"106.701155"},{"NAME":"Quận 1","LAT":"10.780550","LNG":"106.699240"},{"NAME":"Quận 2","LAT":"10.791827","LNG":"106.749322"},{"NAME":"Quận 3","LAT":"10.775085","LNG":"106.686333"},{"NAME":"Quận 4","LAT":"10.766537","LNG":"106.706160"},{"NAME":"Quận 5","LAT":"10.755918","LNG":"106.667435"},{"NAME":"Quận 6","LAT":"10.746458","LNG":"106.649580"},{"NAME":"Quận 7","LAT":"10.711909","LNG":"106.736405"},{"NAME":"Quận 8","LAT":"10.741156","LNG":"106.665873"},{"NAME":"Quận 9","LAT":"10.83975","LNG":"106.771048"},{"NAME":"Quận 10","LAT":"10.767675","LNG":"106.666491"},{"NAME":"Quận 11","LAT":"10.763692","LNG":"106.643885"},{"NAME":"Quận 12","LAT":"10.862172","LNG":"106.654634"},{"NAME":"Gò Vấp","LAT":"10.83192","LNG":"106.669338"},{"NAME":"Tân Bình","LAT":"10.798651","LNG":"106.642506"},{"NAME":"Phú Nhuận","LAT":"10.795094","LNG":"106.676022"},{"NAME":"Bình Thạnh","LAT":"10.803267","LNG":"106.696702"},{"NAME":"Thủ Đức","LAT":"10.848822","LNG":"106.772496"},{"NAME":"Tân Phú","LAT":"10.783617","LNG":"106.637065"},{"NAME":"Bình Tân","LAT":"10.737166","LNG":"106.614895"},{"NAME":"Bình Chánh","LAT":"10.695189","LNG":"106.591125"},{"NAME":"Hóc Môn","LAT":"10.889314","LNG":"106.595487"},{"NAME":"Cần Giờ","LAT":"10.411138","LNG":"106.954476"},{"NAME":"Củ Chi","LAT":"10.973395","LNG":"106.494955"},{"NAME":"Nhà Bè","LAT":"10.674583","LNG":"106.732848"}]},
{"ID":48,"NAME_VI":"Đà Nẵng","SMS":"DN","NAME_EN":"Da Nang","ORDER":3,"LAT":"16.075506","LNG":"108.224129","CHILDS":[{"NAME":"Đà Nẵng","LAT":"16.075506","LNG":"108.224129"},{"NAME":"Cẩm Lệ","LAT":"16.016987","LNG":"108.203530"},{"NAME":"Hải Châu","LAT":"16.061960","LNG":"108.222740"},{"NAME":"Liên Chiểu","LAT":"16.072852","LNG":"108.158131"},{"NAME":"Ngũ Hành Sơn","LAT":"16.016384","LNG":"108.253755"},{"NAME":"Sơn Trà","LAT":"16.060645","LNG":"108.232659"},{"NAME":"Thanh Khê","LAT":"16.071125","LNG":"108.191144"},{"NAME":"Hoàng Sa","LAT":"16.064609","LNG":"108.222335"},{"NAME":"Hòa Vang","LAT":"15.987899","LNG":"108.139822"}]},
{"ID":92,"NAME_VI":"Cần Thơ","SMS":"CT","NAME_EN":"Can Tho","ORDER":4,"LAT":"10.035853","LNG":"105.786575","CHILDS":[{"NAME":"Cần Thơ","LAT":"10.035853","LNG":"105.786575"},{"NAME":"Bình Thủy","LAT":"10.074647","LNG":"105.739140"},{"NAME":"Cái Răng","LAT":"10.000761","LNG":"105.751058"},{"NAME":"Ô Môn","LAT":"10.109613","LNG":"105.622988"},{"NAME":"Ninh Kiều","LAT":"10.043747","LNG":"105.780860"},{"NAME":"Thốt Nốt","LAT":"10.271003","LNG":"105.531637"},{"NAME":"Cờ Đỏ","LAT":"10.09642","LNG":"105.429395"},{"NAME":"Phong Điền","LAT":"10.002599","LNG":"105.665817"},{"NAME":"Thới Lai","LAT":"10.060495","LNG":"105.558461"},{"NAME":"Vĩnh Thạnh","LAT":"10.25234","LNG":"105.417291"}]},
{"ID":31,"NAME_VI":"Hải Phòng","SMS":"HP","NAME_EN":"Hai Phong","ORDER":5,"LAT":"20.865008","LNG":"106.683844","CHILDS":[{"NAME":"Hải Phòng","LAT":"20.865008","LNG":"106.683844"},{"NAME":"Hồng Bàng","LAT":"20.858386","LNG":"106.683871"},{"NAME":"Ngô Quyền","LAT":"20.861418","LNG":"106.694010"},{"NAME":"Lê Chân","LAT":"20.849087","LNG":"106.680974"},{"NAME":"Kiến An","LAT":"20.807136","LNG":"106.625013"},{"NAME":"Đồ Sơn","LAT":"20.715728","LNG":"106.782602"},{"NAME":"Hải An","LAT":"20.832991","LNG":"106.719999"},{"NAME":"Dương Kinh","LAT":"20.807903","LNG":"106.703913"},{"NAME":"Vĩnh Bảo","LAT":"20.688580","LNG":"106.480780"},{"NAME":"An Dương","LAT":"20.864326","LNG":"106.613618"},{"NAME":"Thủy Nguyên","LAT":"20.913883","LNG":"106.674435"},{"NAME":"Kiến Thụy","LAT":"20.750840","LNG":"106.668995"},{"NAME":"An Lão","LAT":"20.821186","LNG":"106.551395"},{"NAME":"Tiên Lãng","LAT":"20.728406","LNG":"106.558500"},{"NAME":"Cát Hải","LAT":"20.731261","LNG":"107.048160"},{"NAME":"Bạch Long Vỹ","LAT":"20.862654","LNG":"106.683388"}]},
{"ID":89,"NAME_VI":"An Giang","SMS":"AG","NAME_EN":"An Giang","ORDER":100,"LAT":"10.389783","LNG":"105.434449","CHILDS":[]},
{"ID":74,"NAME_VI":"Bình Dương","SMS":"BD","NAME_EN":"Binh Duong","ORDER":100,"LAT":"10.980954","LNG":"106.651506","CHILDS":[]},
{"ID":52,"NAME_VI":"Bình Định","SMS":"BDI","NAME_EN":"Binh Dinh","ORDER":100,"LAT":"13.772592","LNG":"109.23481","CHILDS":[]},
{"ID":24,"NAME_VI":"Bắc Giang","SMS":"BG","NAME_EN":"Bac Giang","ORDER":100,"LAT":"21.276118","LNG":"106.199973","CHILDS":[]},
{"ID":6,"NAME_VI":"Bắc Kạn","SMS":"BK","NAME_EN":"Bac Kan","ORDER":100,"LAT":"22.14798","LNG":"105.828785","CHILDS":[]},
{"ID":95,"NAME_VI":"Bạc Liêu","SMS":"BL","NAME_EN":"Bac Lieu","ORDER":100,"LAT":"9.292471","LNG":"105.726716","CHILDS":[]},
{"ID":27,"NAME_VI":"Bắc Ninh","SMS":"BN","NAME_EN":"Bac Ninh","ORDER":100,"LAT":"21.186065","LNG":"106.076315","CHILDS":[]},
{"ID":70,"NAME_VI":"Bình Phước","SMS":"BP","NAME_EN":"Binh Phuoc","ORDER":100,"LAT":"11.936439","LNG":"108.444403","CHILDS":[]},
{"ID":77,"NAME_VI":"Bà Rịa - Vũng Tàu","SMS":"BR","NAME_EN":"Ba Ria - Vung Tau","ORDER":100,"LAT":"10.349837","LNG":"107.07245","CHILDS":[]},
{"ID":83,"NAME_VI":"Bến Tre","SMS":"BT","NAME_EN":"Ben Tre","ORDER":100,"LAT":"10.353083","LNG":"106.363116","CHILDS":[]},
{"ID":60,"NAME_VI":"Bình Thuận","SMS":"BTH","NAME_EN":"Binh Thuan","ORDER":100,"LAT":"10.928251","LNG":"108.101536","CHILDS":[]},
{"ID":4,"NAME_VI":"Cao Bằng","SMS":"CB","NAME_EN":"Cao Bang","ORDER":100,"LAT":"22.665645","LNG":"106.25803","CHILDS":[]},
{"ID":96,"NAME_VI":"Cà Mau","SMS":"CM","NAME_EN":"Ca Mau","ORDER":100,"LAT":"9.181856","LNG":"105.143073","CHILDS":[]},
{"ID":11,"NAME_VI":"Điện Biên","SMS":"DB","NAME_EN":"Dien Bien","ORDER":100,"LAT":"21.385913","LNG":"103.015599","CHILDS":[]},
{"ID":66,"NAME_VI":"Đăk Lăk","SMS":"DL","NAME_EN":"Dak Lak","ORDER":100,"LAT":"12.674454","LNG":"108.043654","CHILDS":[]},
{"ID":75,"NAME_VI":"Đồng Nai","SMS":"DNA","NAME_EN":"Dong Nai","ORDER":100,"LAT":"10.945266","LNG":"106.817252","CHILDS":[]},
{"ID":67,"NAME_VI":"Đăk Nông","SMS":"DNO","NAME_EN":"Dak Nong","ORDER":100,"LAT":"12.003026","LNG":"107.692521","CHILDS":[]},
{"ID":87,"NAME_VI":"Đồng Tháp","SMS":"DT","NAME_EN":"Dong Thap","ORDER":100,"LAT":"10.46026","LNG":"105.632954","CHILDS":[]},
{"ID":64,"NAME_VI":"Gia Lai","SMS":"GLA","NAME_EN":"Gia Lai","ORDER":100,"LAT":"13.979066","LNG":"107.991115","CHILDS":[]},
{"ID":17,"NAME_VI":"Hòa Bình","SMS":"HB","NAME_EN":"Hoa Binh","ORDER":100,"LAT":"20.814477","LNG":"105.334011","CHILDS":[]},
{"ID":30,"NAME_VI":"Hải Dương","SMS":"HD","NAME_EN":"Hai Duong","ORDER":100,"LAT":"20.94124","LNG":"106.333968","CHILDS":[]},
{"ID":2,"NAME_VI":"Hà Giang","SMS":"HG","NAME_EN":"Ha Giang","ORDER":100,"LAT":"22.828175","LNG":"104.982882","CHILDS":[]},
{"ID":93,"NAME_VI":"Hậu Giang","SMS":"HGA","NAME_EN":"Hau Giang","ORDER":100,"LAT":"9.79508","LNG":"105.483279","CHILDS":[]},
{"ID":35,"NAME_VI":"Hà Nam","SMS":"HNA","NAME_EN":"Ha Nam","ORDER":100,"LAT":"20.547058","LNG":"105.913025","CHILDS":[]},
{"ID":42,"NAME_VI":"Hà Tĩnh","SMS":"HTI","NAME_EN":"Ha Tinh","ORDER":100,"LAT":"18.34004","LNG":"105.90411","CHILDS":[]},
{"ID":46,"NAME_VI":"Thừa Thiên Huế","SMS":"HUE","NAME_EN":"Thua Thien Hue","ORDER":100,"LAT":"16.461367","LNG":"107.583663","CHILDS":[]},
{"ID":33,"NAME_VI":"Hưng Yên","SMS":"HY","NAME_EN":"Hung Yen","ORDER":100,"LAT":"20.655083","LNG":"106.055188","CHILDS":[]},
{"ID":91,"NAME_VI":"Kiên Giang","SMS":"KG","NAME_EN":"Kien Giang","ORDER":100,"LAT":"10.012713","LNG":"105.080763","CHILDS":[]},
{"ID":62,"NAME_VI":"Kon Tum","SMS":"KT","NAME_EN":"Kon Tum","ORDER":100,"LAT":"14.345744","LNG":"108.003772","CHILDS":[]},
{"ID":56,"NAME_VI":"Khánh Hòa","SMS":"KH","NAME_EN":"Khanh Hoa","ORDER":100,"LAT":"12.255905","LNG":"109.19673","CHILDS":[]},
{"ID":80,"NAME_VI":"Long An","SMS":"LA","NAME_EN":"Long An","ORDER":100,"LAT":"10.540714","LNG":"106.413668","CHILDS":[]},
{"ID":10,"NAME_VI":"Lào Cai","SMS":"LC","NAME_EN":"Lao Cai","ORDER":100,"LAT":"22.476153","LNG":"103.973429","CHILDS":[]},
{"ID":12,"NAME_VI":"Lai Châu","SMS":"LCH","NAME_EN":"Lai Chau","ORDER":100,"LAT":"22.388968","LNG":"103.475878","CHILDS":[]},
{"ID":68,"NAME_VI":"Lâm Đồng","SMS":"LD","NAME_EN":"Lam Dong","ORDER":100,"LAT":"","LNG":"","CHILDS":[]},
{"ID":20,"NAME_VI":"Lạng Sơn","SMS":"LS","NAME_EN":"Lang Son","ORDER":100,"LAT":"21.833187","LNG":"106.760592","CHILDS":[]},
{"ID":40,"NAME_VI":"Nghệ An","SMS":"NA","NAME_EN":"Nghe An","ORDER":100,"LAT":"19.807307","LNG":"105.775184","CHILDS":[]},
{"ID":37,"NAME_VI":"Ninh Bình","SMS":"NB","NAME_EN":"Ninh Binh","ORDER":100,"LAT":"20.258247","LNG":"105.976663","CHILDS":[]},
{"ID":36,"NAME_VI":"Nam Định","SMS":"ND","NAME_EN":"Nam Dinh","ORDER":100,"LAT":"20.434254","LNG":"106.176263","CHILDS":[]},
{"ID":58,"NAME_VI":"Ninh Thuận","SMS":"NTH","NAME_EN":"Ninh Thuan","ORDER":100,"LAT":"11.565539","LNG":"108.99079","CHILDS":[]},
{"ID":25,"NAME_VI":"Phú Thọ","SMS":"PT","NAME_EN":"Phu Tho","ORDER":100},
{"ID":54,"NAME_VI":"Phú Yên","SMS":"PY","NAME_EN":"Phu Yen","ORDER":100,"LAT":"13.095164","LNG":"109.322432","CHILDS":[]},
{"ID":44,"NAME_VI":"Quảng Bình","SMS":"QB","NAME_EN":"Quang Binh","ORDER":100,"LAT":"17.467217","LNG":"106.622588","CHILDS":[]},
{"ID":22,"NAME_VI":"Quảng Ninh","SMS":"QN","NAME_EN":"Quang Ninh","ORDER":100,"LAT":"20.941636","LNG":"107.1236","CHILDS":[]},
{"ID":49,"NAME_VI":"Quảng Nam","SMS":"QNA","NAME_EN":"Quang Nam","ORDER":100,"LAT":"15.570355","LNG":"108.467722","CHILDS":[]},
{"ID":51,"NAME_VI":"Quảng Ngãi","SMS":"QNG","NAME_EN":"Quang Ngai","ORDER":100,"LAT":"15.12216","LNG":"108.800072","CHILDS":[]},
{"ID":45,"NAME_VI":"Quảng Trị","SMS":"QT","NAME_EN":"Quang Tri","ORDER":100,"LAT":"16.817502","LNG":"107.09916","CHILDS":[]},
{"ID":14,"NAME_VI":"Sơn La","SMS":"SL","NAME_EN":"Son La","ORDER":100,"LAT":"21.329456","LNG":"103.909431","CHILDS":[]},
{"ID":94,"NAME_VI":"Sóc Trăng","SMS":"STR","NAME_EN":"Soc Trang","ORDER":100,"LAT":"9.59924","LNG":"105.970518","CHILDS":[]},
{"ID":34,"NAME_VI":"Thái Bình","SMS":"TB","NAME_EN":"Thai Binh","ORDER":100,"LAT":"20.452631","LNG":"106.346537","CHILDS":[]},
{"ID":82,"NAME_VI":"Tiền Giang","SMS":"TG","NAME_EN":"Tien Giang","ORDER":100,"LAT":"","LNG":"","CHILDS":[]},
{"ID":19,"NAME_VI":"Thái Nguyên","SMS":"TN","NAME_EN":"Thai Nguyen","ORDER":100,"LAT":"9.79508","LNG":"105.483279","CHILDS":[]},
{"ID":72,"NAME_VI":"Tây Ninh","SMS":"TNI","NAME_EN":"Tay Ninh","ORDER":100,"LAT":"11.314007","LNG":"106.093956","CHILDS":[]},
{"ID":8,"NAME_VI":"Tuyên Quang","SMS":"TQ","NAME_EN":"Tuyen Quang","ORDER":100,"LAT":"21.822792","LNG":"105.218274","CHILDS":[]},
{"ID":84,"NAME_VI":"Trà Vinh","SMS":"TV","NAME_EN":"Tra Vinh","ORDER":100,"LAT":"9.937616","LNG":"106.341197","CHILDS":[]},
{"ID":38,"NAME_VI":"Thanh Hoá","SMS":"TH","NAME_EN":"Thanh Hoa","ORDER":100,"LAT":"","LNG":"","CHILDS":[]},
{"ID":86,"NAME_VI":"Vĩnh Long","SMS":"VL","NAME_EN":"Vinh Long","ORDER":100,"LAT":"10.254286","LNG":"105.972243","CHILDS":[]},
{"ID":26,"NAME_VI":"Vĩnh Phúc","SMS":"VP","NAME_EN":"Vinh Phuc","ORDER":100,"LAT":"21.310716","LNG":"105.603807","CHILDS":[]},
{"ID":15,"NAME_VI":"Yên Bái","SMS":"YB","NAME_EN":"Yen Bai","ORDER":100,"LAT":"21.70721","LNG":"104.872039","CHILDS":[]}]